ASTRA 3B                
1 36581U 10021A   26167.97464669  .00000133  00000+0  00000+0 0  9995
2 36581   1.4692  83.5597 0004176   5.0670 190.9654  1.00270821 58862
COMSATBW-2              
1 36582U 10021B   26167.91607894  .00000085  00000+0  00000+0 0  9995
2 36582   0.0452  65.3799 0002560  36.3508 146.4243  1.00272496 58956
BEIDOU-2 G3             
1 36590U 10024A   26167.77186332 -.00000141  00000+0  00000+0 0  9994
2 36590   4.5143  61.5169 0007734 351.2754 209.8157  1.00271066 58769
BADR-5                  
1 36592U 10025A   26167.76215661  .00000151  00000+0  00000+0 0  9994
2 36592   0.0555 130.1243 0003818  63.3810  16.3551  1.00271735 53215
COMS 1                  
1 36744U 10032A   26167.95048859  .00000055  00000+0  00000+0 0  9998
2 36744   4.8049  75.3571 0011488  11.7446 234.6783  0.99162509 51082
ARABSAT-5A              
1 36745U 10032B   26167.76224328  .00000151  00000+0  00000+0 0  9992
2 36745   0.0513  34.3975 0005790  73.4322 102.1027  1.00276315 58640
ECHOSTAR 15             
1 36792U 10034A   26168.12200970 -.00000004  00000+0  00000+0 0  9992
2 36792   0.0379  67.2237 0001951 353.8646 129.4280  1.00271330 58327
BEIDOU-2 IGSO-1         
1 36828U 10036A   26166.92185411 -.00000073  00000+0  00000+0 0  9998
2 36828  54.3019 162.9711 0059298 225.1772 315.5729  1.00272283 58085
NILESAT 201             
1 36830U 10037A   26167.75473036 -.00000060  00000+0  00000+0 0  9993
2 36830   0.0293 228.6345 0004491 247.6592  53.4566  1.00272354 58375
RASCOM-QAF 1R           
1 36831U 10037B   26167.68548933  .00000016  00000+0  00000+0 0  9995
2 36831   0.0254  74.2587 0006764   6.5796  73.7889  1.00272621 58302
AEHF-1 (USA 214)        
1 36868U 10039A   26166.98287366  .00000142  00000+0  00000+0 0  9999
2 36868   8.2165  68.0662 0003833   7.6167 212.3496  1.00273839 53645
XM-5                    
1 37185U 10053A   26167.73323692 -.00000025  00000+0  00000+0 0  9996
2 37185   0.0647 272.9687 0002955 288.9516 211.8427  1.00269128 57471
BSAT-3B                 
1 37207U 10056B   26167.94457661 -.00000353  00000+0  00000+0 0  9995
2 37207   0.0625 241.1383 0001638 305.0077 168.9526  1.00269343 52097
BEIDOU-2 G4             
1 37210U 10057A   26168.01360174 -.00000118  00000+0  00000+0 0  9990
2 37210   3.6462  68.9422 0005307 196.5483 164.6792  1.00270672 57291
SKYTERRA 1              
1 37218U 10061A   26168.24338625 -.00000125  00000+0  00000+0 0  9992
2 37218   5.1258  50.8594 0002231   8.7586 192.1621  1.00271845 57199
HYLAS 1                 
1 37237U 10065A   26167.91718646  .00000083  00000+0  00000+0 0  9997
2 37237   5.6433  73.0236 0000845 319.8309 216.3082  1.00272203  6887
INTELSAT 17 (IS-17)     
1 37238U 10065B   26167.98305339 -.00000005  00000+0  00000+0 0  9991
2 37238   0.0057 305.4017 0002608 150.5404 229.1957  1.00271618 53247
BEIDOU-2 IGSO-2         
1 37256U 10068A   26166.85415660 -.00000214  00000+0  00000+0 0  9990
2 37256  47.5513 271.8488 0055907 212.6889 194.9404  1.00282881 56787
EUTELSAT KA-SAT 9A      
1 37258U 10069A   26167.75790641  .00000057  00000+0  00000+0 0  9992
2 37258   0.0613  11.1366 0004353 122.5923  53.1433  1.00258930 44009
HISPASAT 30W-5          
1 37264U 10070A   26167.75022367 -.00000218  00000+0  00000+0 0  9994
2 37264   0.0501 113.8283 0005093 349.9658  41.3030  1.00271912 53188
KOREASAT 6              
1 37265U 10070B   26167.71651019 -.00000114  00000+0  00000+0 0  9998
2 37265   0.0164  19.3728 0002052  74.9710 228.4621  1.00270758 56762
BEIDOU-2 IGSO-3         
1 37384U 11013A   26165.58618677 -.00000189  00000+0  00000+0 0  9996
2 37384  62.4034  40.1764 0034371 184.2029 357.3112  1.00267759 55630
INTELSAT 28 (IS-28)     
1 37392U 11016A   26167.74987699 -.00000229  00000+0  00000+0 0  9996
2 37392   1.8056  82.6255 0003610   6.9956  53.6278  1.00269732 53288
YAHSAT 1A               
1 37393U 11016B   26167.98045338  .00000000  00000+0  00000+0 0  9994
2 37393   0.0177  10.4655 0002910  81.6649 218.5727  1.00273430 42401
SBIRS GEO-1 (USA 230)   
1 37481U 11019A   26167.93080382  .00000094  00000+0  00000+0 0  9991
2 37481   4.5353  53.1261 0002067  25.0801 213.8769  1.00272482 55398
TELSTAR 14R             
1 37602U 11021A   26168.34294374 -.00000284  00000+0  00000+0 0  9995
2 37602   0.0139  48.5981 0002169   8.9914 268.4612  1.00271129 55830
GSAT-8                  
1 37605U 11022A   26167.93330913  .00000080  00000+0  00000+0 0  9996
2 37605   2.1309  81.8310 0002232 199.7115  14.7281  1.00271222 53212
ST-2                    
1 37606U 11022B   26167.77354126 -.00000214  00000+0  00000+0 0  9991
2 37606   0.0191  35.3748 0001603  61.5550 174.5934  1.00271943 55276
ZHONGXING-10            
1 37677U 11026A   26167.74047685 -.00000190  00000+0  00000+0 0  9992
2 37677   1.0453  84.1979 0003198   4.8991 167.9454  1.00268098 54992
SES-3                   
1 37748U 11035A   26168.32850972 -.00000107  00000+0  00000+0 0  9995
2 37748   1.3279  83.0837 0002259 354.3843 203.3809  1.00271329 54593
KAZSAT-2                
1 37749U 11035B   26167.84454463 -.00000200  00000+0  00000+0 0  9991
2 37749   0.0334 230.5149 0001230 289.0204 136.1279  1.00271592 53393
BEIDOU-2 IGSO-4         
1 37763U 11038A   26167.68545095  .00000019  00000+0  00000+0 0  9991
2 37763  54.6000 165.6770 0159520 231.4431 207.9860  1.00285273 54644
