OBJECT_NAME,OBJECT_ID,EPOCH,MEAN_MOTION,ECCENTRICITY,INCLINATION,RA_OF_ASC_NODE,ARG_OF_PERICENTER,MEAN_ANOMALY,EPHEMERIS_TYPE,CLASSIFICATION_TYPE,NORAD_CAT_ID,ELEMENT_SET_NO,REV_AT_EPOCH,BSTAR,MEAN_MOTION_DOT,MEAN_MOTION_DDOT
ASTRA 3B,2010-021A,2026-06-16T23:23:29.474016,1.00270821,.0004176,1.4692,83.5597,5.0670,190.9654,0,U,36581,999,5886,0,.133E-5,0
COMSATBW-2,2010-021B,2026-06-16T21:59:09.220416,1.00272496,.000256,0.0452,65.3799,36.3508,146.4243,0,U,36582,999,5895,0,.85E-6,0
BEIDOU-2 G3,2010-024A,2026-06-16T18:31:28.990848,1.00271066,.0007734,4.5143,61.5169,351.2754,209.8157,0,U,36590,999,5876,0,-.141E-5,0
BADR-5,2010-025A,2026-06-16T18:17:30.331104,1.00271735,.0003818,0.0555,130.1243,63.3810,16.3551,0,U,36592,999,5321,0,.151E-5,0
COMS 1,2010-032A,2026-06-16T22:48:42.214176,0.99162509,.0011488,4.8049,75.3571,11.7446,234.6783,0,U,36744,999,5108,0,.55E-6,0
ARABSAT-5A,2010-032B,2026-06-16T18:17:37.819392,1.00276315,.000579,0.0513,34.3975,73.4322,102.1027,0,U,36745,999,5864,0,.151E-5,0
ECHOSTAR 15,2010-034A,2026-06-17T02:55:41.638080,1.00271330,.0001951,0.0379,67.2237,353.8646,129.4280,0,U,36792,999,5832,0,-.4E-7,0
BEIDOU-2 IGSO-1,2010-036A,2026-06-15T22:07:28.195104,1.00272283,.00592987,54.3019,162.9711,225.1772,315.5729,0,U,36828,999,5808,0,-.73E-6,0
NILESAT 201,2010-037A,2026-06-16T18:06:48.703104,1.00272354,.0004491,0.0293,228.6345,247.6592,53.4566,0,U,36830,999,5837,0,-.6E-6,0
RASCOM-QAF 1R,2010-037B,2026-06-16T16:27:06.278112,1.00272621,.0006764,0.0254,74.2587,6.5796,73.7889,0,U,36831,999,5830,0,.16E-6,0
AEHF-1 (USA 214),2010-039A,2026-06-15T23:35:20.284224,1.00273839,.00038332,8.2165,68.0662,7.6167,212.3496,0,U,36868,999,5364,0,.142E-5,0
XM-5,2010-053A,2026-06-16T17:35:51.669888,1.00269128,.0002955,0.0647,272.9687,288.9516,211.8427,0,U,37185,999,5747,0,-.25E-6,0
BSAT-3B,2010-056B,2026-06-16T22:40:11.419104,1.00269343,.0001638,0.0625,241.1383,305.0077,168.9526,0,U,37207,999,5209,0,-.353E-5,0
BEIDOU-2 G4,2010-057A,2026-06-17T00:19:35.190336,1.00270672,.0005307,3.6462,68.9422,196.5483,164.6792,0,U,37210,999,5729,0,-.118E-5,0
SKYTERRA 1,2010-061A,2026-06-17T05:50:28.572000,1.00271845,.0002231,5.1258,50.8594,8.7586,192.1621,0,U,37218,999,5719,0,-.125E-5,0
HYLAS 1,2010-065A,2026-06-16T22:00:44.910144,1.00272203,.0000845,5.6433,73.0236,319.8309,216.3082,0,U,37237,999,688,0,.83E-6,0
INTELSAT 17 (IS-17),2010-065B,2026-06-16T23:35:35.812896,1.00271618,.0002608,0.0057,305.4017,150.5404,229.1957,0,U,37238,999,5324,0,-.5E-7,0
BEIDOU-2 IGSO-2,2010-068A,2026-06-15T20:29:59.130240,1.00282881,.0055907,47.5513,271.8488,212.6889,194.9404,0,U,37256,999,5678,0,-.214E-5,0
EUTELSAT KA-SAT 9A,2010-069A,2026-06-16T18:11:23.113824,1.00258930,.0004353,0.0613,11.1366,122.5923,53.1433,0,U,37258,999,4400,0,.57E-6,0
HISPASAT 30W-5,2010-070A,2026-06-16T18:00:19.325088,1.00271912,.0005093,0.0501,113.8283,349.9658,41.3030,0,U,37264,999,5318,0,-.218E-5,0
KOREASAT 6,2010-070B,2026-06-16T17:11:46.480416,1.00270758,.0002052,0.0164,19.3728,74.9710,228.4621,0,U,37265,999,5676,0,-.114E-5,0
BEIDOU-2 IGSO-3,2011-013A,2026-06-14T14:04:06.536928,1.00267759,.00343713,62.4034,40.1764,184.2029,357.3112,0,U,37384,999,5563,0,-.189E-5,0
INTELSAT 28 (IS-28),2011-016A,2026-06-16T17:59:49.371936,1.00269732,.000361,1.8056,82.6255,6.9956,53.6278,0,U,37392,999,5328,0,-.229E-5,0
YAHSAT 1A,2011-016B,2026-06-16T23:31:51.172032,1.00273430,.000291,0.0177,10.4655,81.6649,218.5727,0,U,37393,999,4240,0,0,0
SBIRS GEO-1 (USA 230),2011-019A,2026-06-16T22:20:21.450048,1.00272482,.0002067,4.5353,53.1261,25.0801,213.8769,0,U,37481,999,5539,0,.94E-6,0
TELSTAR 14R,2011-021A,2026-06-17T08:13:50.339136,1.00271129,.0002169,0.0139,48.5981,8.9914,268.4612,0,U,37602,999,5583,0,-.284E-5,0
GSAT-8,2011-022A,2026-06-16T22:23:57.908832,1.00271222,.0002232,2.1309,81.8310,199.7115,14.7281,0,U,37605,999,5321,0,.8E-6,0
ST-2,2011-022B,2026-06-16T18:33:53.964864,1.00271943,.0001603,0.0191,35.3748,61.5550,174.5934,0,U,37606,999,5527,0,-.214E-5,0
ZHONGXING-10,2011-026A,2026-06-16T17:46:17.199840,1.00268098,.0003198,1.0453,84.1979,4.8991,167.9454,0,U,37677,999,5499,0,-.19E-5,0
SES-3,2011-035A,2026-06-17T07:53:03.239808,1.00271329,.0002259,1.3279,83.0837,354.3843,203.3809,0,U,37748,999,5459,0,-.107E-5,0
KAZSAT-2,2011-035B,2026-06-16T20:16:08.656032,1.00271592,.000123,0.0334,230.5149,289.0204,136.1279,0,U,37749,999,5339,0,-.2E-5,0
BEIDOU-2 IGSO-4,2011-038A,2026-06-16T16:27:02.962080,1.00285273,.015952,54.6000,165.6770,231.4431,207.9860,0,U,37763,999,5464,0,.19E-6,0
